{
    "links": {
        "self": "http://www.neowsapp.com/rest/v1/neo/3585468?api_key=iIulBulltgU6a56xZRHN4H3l9WmuAYTsLGpBGhQ2"
    },
    "id": "3585468",
    "neo_reference_id": "3585468",
    "name": "(2011 VA)",
    "designation": "2011 VA",
    "nasa_jpl_url": "http://ssd.jpl.nasa.gov/sbdb.cgi?sstr=3585468",
    "absolute_magnitude_h": 23.9,
    "estimated_diameter": {
        "kilometers": {
            "estimated_diameter_min": 0.04411182,
            "estimated_diameter_max": 0.0986370281
        },
        "meters": {
            "estimated_diameter_min": 44.1118199997,
            "estimated_diameter_max": 98.6370281305
        },
        "miles": {
            "estimated_diameter_min": 0.0274098057,
            "estimated_diameter_max": 0.0612901888
        },
        "feet": {
            "estimated_diameter_min": 144.7238235278,
            "estimated_diameter_max": 323.6123073718
        }
    },
    "is_potentially_hazardous_asteroid": false,
    "close_approach_data": [
        {
            "close_approach_date": "2011-10-26",
            "close_approach_date_full": "2011-Oct-26 17:32",
            "epoch_date_close_approach": 1319650320000,
            "relative_velocity": {
                "kilometers_per_second": "10.8518790408",
                "kilometers_per_hour": "39066.7645470308",
                "miles_per_hour": "24274.5682264592"
            },
            "miss_distance": {
                "astronomical": "0.1031600296",
                "lunar": "40.1292515144",
                "kilometers": "15432520.697296952",
                "miles": "9589323.6984518576"
            },
            "orbiting_body": "Earth"
        }
    ],
    "orbital_data": {
        "orbit_id": "4",
        "orbit_determination_date": "2017-04-06 08:52:06",
        "first_observation_date": "2011-11-01",
        "last_observation_date": "2011-11-02",
        "data_arc_in_days": 1,
        "observations_used": 16,
        "orbit_uncertainty": "9",
        "minimum_orbit_intersection": ".0598563",
        "jupiter_tisserand_invariant": "4.484",
        "epoch_osculation": "2455867.5",
        "eccentricity": ".3321597466986549",
        "semi_major_axis": "1.487437265200602",
        "inclination": "12.26431613900725",
        "ascending_node_longitude": "217.3890064533124",
        "orbital_period": "662.6076010692072",
        "perihelion_distance": ".9933704799614304",
        "perihelion_argument": "134.3012671297273",
        "aphelion_distance": "1.981504050439775",
        "perihelion_time": "2455828.652257836890",
        "mean_anomaly": "21.10628848228212",
        "mean_motion": ".5433079841207543",
        "equinox": "J2000",
        "orbit_class": {
            "orbit_class_type": "APO",
            "orbit_class_description": "Near-Earth asteroid orbits which cross the Earth’s orbit similar to that of 1862 Apollo",
            "orbit_class_range": "a (semi-major axis) > 1.0 AU; q (perihelion) < 1.017 AU"
        }
    },
    "is_sentry_object": false
}